ONEWEB-0683             
1 56719U 23068K   26019.28727916  .00000087  00000+0  19651-3 0  9996
2 56719  87.9014 288.9063 0001654  83.5017 276.6302 13.15549369129841
ONEWEB-0684             
1 56720U 23068L   26019.29518488  .00000000  00000+0 -35056-4 0  9995
2 56720  87.9012 288.8983 0000541  17.0400 343.0748 13.15546675129674
ONEWEB-0686             
1 56721U 23068M   26019.10159695  .00000118  00000+0  27271-3 0  9995
2 56721  87.9017 258.4912 0001278  93.2406 266.8872 13.17180836132090
ONEWEB-0694             
1 56722U 23068N   26019.10438475  .00000089  00000+0  20002-3 0  9994
2 56722  87.9040 258.4254 0001664  95.0273 265.1048 13.16593085132154
ONEWEB-0696             
1 56723U 23068P   26019.25239192  .00002145  00000+0  56616-2 0  9990
2 56723  87.9001 288.9566 0001504  68.1818 291.9472 13.15567089129782
ONEWEB-0703             
1 56724U 23068Q   26019.26193013  .00000169  00000+0  41548-3 0  9996
2 56724  87.9001 288.9360 0001717  39.7309 320.3947 13.15548807129679
ONEWEB-0721             
1 56725U 23068R   26019.31769396  .00000130  00000+0  27647-3 0  9998
2 56725  86.6822 133.0247 0001587 107.0774 253.0534 13.22457286138268
ONEWEB-0015             
1 61594U 24188A   26019.14928156  .00000640  00000+0  17686-2 0  9991
2 61594  87.8815  50.7649 0002384  89.8899 270.2502 13.11415680 64922
